{
    "bodies": [
        {
            "name": "Planet Nine",
            "mass": 1.5016900000000002e-05,
            "semi_major_axis": 500,
            "eccentricity": 0.25,
            "inclination": 0.3490658503988659,
            "longitude_of_ascending_node": 1.5009831567151235,
            "argument_of_perihelion": 2.4085543677521746,
            "mean_anomaly": 3.207915165165578
        },
        {
            "name": "Neptune",
            "mass": 5.14855965e-05,
            "semi_major_axis": 30.06896348,
            "eccentricity": 0.00858587,
            "inclination": 0.03087784152750808,
            "longitude_of_ascending_node": 2.2989771867912894,
            "argument_of_perihelion": 4.769106246955049,
            "mean_anomaly": 0.0
        },
        {
            "name": "Uranus",
            "mass": 4.36430044e-05,
            "semi_major_axis": 19.19126393,
            "eccentricity": 0.04716771,
            "inclination": 0.013436591779403545,
            "longitude_of_ascending_node": 1.2955558093602884,
            "argument_of_perihelion": 4.594852225370085,
            "mean_anomaly": 0.0
        },
        {
            "name": "Saturn",
            "mass": 0.000285716656,
            "semi_major_axis": 9.53707032,
            "eccentricity": 0.0541506,
            "inclination": 0.04336200713409832,
            "longitude_of_ascending_node": 1.9847018570370527,
            "argument_of_perihelion": 5.911725137148381,
            "mean_anomaly": 0.0
        },
        {
            "name": "Jupiter",
            "mass": 0.000954588,
            "semi_major_axis": 5.20336301,
            "eccentricity": 0.04839266,
            "inclination": 0.022781782726281983,
            "longitude_of_ascending_node": 1.7550359006292962,
            "argument_of_perihelion": 4.785652666395656,
            "mean_anomaly": 0.0
        },
        {
            "name": "TNO-0",
            "mass": 0,
            "semi_major_axis": 150.0,
            "eccentricity": 0.8,
            "inclination": 0.0,
            "longitude_of_ascending_node": 2.19246137185917,
            "argument_of_perihelion": 6.124845236748852,
            "mean_anomaly": 1.5397546153575397
        },
        {
            "name": "TNO-1",
            "mass": 0,
            "semi_major_axis": 150.55555555555554,
            "eccentricity": 0.8001587301587302,
            "inclination": 0.0006925909730136228,
            "longitude_of_ascending_node": 2.217881741252088,
            "argument_of_perihelion": 4.459883091019409,
            "mean_anomaly": 4.144271259626914
        },
        {
            "name": "TNO-2",
            "mass": 0,
            "semi_major_axis": 151.11111111111111,
            "eccentricity": 0.8003174603174603,
            "inclination": 0.0013851819460272456,
            "longitude_of_ascending_node": 3.05917990574371,
            "argument_of_perihelion": 2.3492104552234725,
            "mean_anomaly": 1.2477838141800546
        },
        {
            "name": "TNO-3",
            "mass": 0,
            "semi_major_axis": 151.66666666666666,
            "eccentricity": 0.8004761904761906,
            "inclination": 0.0020777729190408684,
            "longitude_of_ascending_node": 3.5600118878363136,
            "argument_of_perihelion": 2.292257541368246,
            "mean_anomaly": 2.8777827516573597
        },
        {
            "name": "TNO-4",
            "mass": 0,
            "semi_major_axis": 152.22222222222223,
            "eccentricity": 0.8006349206349207,
            "inclination": 0.002770363892054491,
            "longitude_of_ascending_node": 2.6261965656515858,
            "argument_of_perihelion": 4.059807569412834,
            "mean_anomaly": 5.9498056867582125
        },
        {
            "name": "TNO-5",
            "mass": 0,
            "semi_major_axis": 152.77777777777777,
            "eccentricity": 0.8007936507936508,
            "inclination": 0.003462954865068114,
            "longitude_of_ascending_node": 4.522242588930053,
            "argument_of_perihelion": 5.297931720581849,
            "mean_anomaly": 5.28329240872602
        },
        {
            "name": "TNO-6",
            "mass": 0,
            "semi_major_axis": 153.33333333333334,
            "eccentricity": 0.800952380952381,
            "inclination": 0.004155545838081737,
            "longitude_of_ascending_node": 0.6932844156711959,
            "argument_of_perihelion": 2.99849886783863,
            "mean_anomaly": 5.049730342413821
        },
        {
            "name": "TNO-7",
            "mass": 0,
            "semi_major_axis": 153.88888888888889,
            "eccentricity": 0.8011111111111111,
            "inclination": 0.0048481368110953596,
            "longitude_of_ascending_node": 1.1583928798245016,
            "argument_of_perihelion": 4.2421793140521284,
            "mean_anomaly": 2.420913465156055
        },
        {
            "name": "TNO-8",
            "mass": 0,
            "semi_major_axis": 154.44444444444446,
            "eccentricity": 0.8012698412698414,
            "inclination": 0.005540727784108982,
            "longitude_of_ascending_node": 3.802705063423257,
            "argument_of_perihelion": 0.6421783390078095,
            "mean_anomaly": 2.2442004401750832
        },
        {
            "name": "TNO-9",
            "mass": 0,
            "semi_major_axis": 155.0,
            "eccentricity": 0.8014285714285715,
            "inclination": 0.006233318757122605,
            "longitude_of_ascending_node": 2.130187222756091,
            "argument_of_perihelion": 2.355681983140017,
            "mean_anomaly": 1.1313542054963772
        },
        {
            "name": "TNO-10",
            "mass": 0,
            "semi_major_axis": 155.55555555555554,
            "eccentricity": 0.8015873015873016,
            "inclination": 0.006925909730136228,
            "longitude_of_ascending_node": 2.889622267897205,
            "argument_of_perihelion": 6.132879465090741,
            "mean_anomaly": 0.30218889600415794
        },
        {
            "name": "TNO-11",
            "mass": 0,
            "semi_major_axis": 156.11111111111111,
            "eccentricity": 0.8017460317460318,
            "inclination": 0.00761850070314985,
            "longitude_of_ascending_node": 5.205990498511735,
            "argument_of_perihelion": 6.191061857400688,
            "mean_anomaly": 2.434942471825785
        },
        {
            "name": "TNO-12",
            "mass": 0,
            "semi_major_axis": 156.66666666666666,
            "eccentricity": 0.8019047619047619,
            "inclination": 0.008311091676163474,
            "longitude_of_ascending_node": 2.080161919632208,
            "argument_of_perihelion": 3.278407403650958,
            "mean_anomaly": 0.3942769684182108
        },
        {
            "name": "TNO-13",
            "mass": 0,
            "semi_major_axis": 157.22222222222223,
            "eccentricity": 0.8020634920634921,
            "inclination": 0.009003682649177096,
            "longitude_of_ascending_node": 0.22632781627536228,
            "argument_of_perihelion": 2.9544323630480096,
            "mean_anomaly": 1.2081346606512458
        },
        {
            "name": "TNO-14",
            "mass": 0,
            "semi_major_axis": 157.77777777777777,
            "eccentricity": 0.8022222222222223,
            "inclination": 0.009696273622190719,
            "longitude_of_ascending_node": 0.5174151588500913,
            "argument_of_perihelion": 1.6478613198845224,
            "mean_anomaly": 3.3336188116193672
        },
        {
            "name": "TNO-15",
            "mass": 0,
            "semi_major_axis": 158.33333333333334,
            "eccentricity": 0.8023809523809524,
            "inclination": 0.010388864595204342,
            "longitude_of_ascending_node": 5.592486530472651,
            "argument_of_perihelion": 0.13769282816174613,
            "mean_anomaly": 3.558525545999607
        },
        {
            "name": "TNO-16",
            "mass": 0,
            "semi_major_axis": 158.88888888888889,
            "eccentricity": 0.8025396825396826,
            "inclination": 0.011081455568217964,
            "longitude_of_ascending_node": 1.1987805614933922,
            "argument_of_perihelion": 6.07623439602921,
            "mean_anomaly": 1.5047095083191326
        },
        {
            "name": "TNO-17",
            "mass": 0,
            "semi_major_axis": 159.44444444444446,
            "eccentricity": 0.8026984126984127,
            "inclination": 0.011774046541231587,
            "longitude_of_ascending_node": 5.0458492758954945,
            "argument_of_perihelion": 4.684299474763608,
            "mean_anomaly": 5.2476576380706215
        },
        {
            "name": "TNO-18",
            "mass": 0,
            "semi_major_axis": 160.0,
            "eccentricity": 0.8028571428571429,
            "inclination": 0.01246663751424521,
            "longitude_of_ascending_node": 4.071341523312723,
            "argument_of_perihelion": 3.618686449893946,
            "mean_anomaly": 1.8450614964610594
        },
        {
            "name": "TNO-19",
            "mass": 0,
            "semi_major_axis": 160.55555555555554,
            "eccentricity": 0.8030158730158731,
            "inclination": 0.013159228487258832,
            "longitude_of_ascending_node": 5.843853717368572,
            "argument_of_perihelion": 0.17063186632046257,
            "mean_anomaly": 6.273396301656045
        },
        {
            "name": "TNO-20",
            "mass": 0,
            "semi_major_axis": 161.11111111111111,
            "eccentricity": 0.8031746031746032,
            "inclination": 0.013851819460272455,
            "longitude_of_ascending_node": 2.2301809443584117,
            "argument_of_perihelion": 3.8808006197737384,
            "mean_anomaly": 5.1468757976092805
        }
    ]
}